[
  {
    "OBJECT_NAME": "STARLINK-32645",
    "OBJECT_ID": "24239W",
    "EPOCH": "2025-11-11T04:28:21.152352",
    "MEAN_MOTION": 15.30238841,
    "ECCENTRICITY": 0.0001311,
    "INCLINATION": 53.1585,
    "RA_OF_ASC_NODE": 11.3549,
    "ARG_OF_PERICENTER": 74.2858,
    "MEAN_ANOMALY": 285.8287,
    "EPHEMERIS_TYPE": 0,
    "CLASSIFICATION_TYPE": "U",
    "NORAD_CAT_ID": 62321,
    "ELEMENT_SET_NO": 999,
    "REV_AT_EPOCH": 5142,
    "BSTAR": 0.0013999000000000001,
    "MEAN_MOTION_DOT": 0.00041384,
    "MEAN_MOTION_DDOT": 0.0,
    "TLE_LINE1": "1 62321U 24239W   25315.18635593  .00041384  00000+0  13999-2 0  9992",
    "TLE_LINE2": "2 62321  53.1585  11.3549 0001311  74.2858 285.8287 15.30238841 51423",
    "COMMENT": "Grouped by shell and plane from TLE"
  },
  {
    "OBJECT_NAME": "STARLINK-33945",
    "OBJECT_ID": "25112J",
    "EPOCH": "2025-11-11T04:07:45.938208",
    "MEAN_MOTION": 15.39356579,
    "ECCENTRICITY": 0.0002252,
    "INCLINATION": 97.6047,
    "RA_OF_ASC_NODE": 10.3625,
    "ARG_OF_PERICENTER": 100.5119,
    "MEAN_ANOMALY": 259.638,
    "EPHEMERIS_TYPE": 0,
    "CLASSIFICATION_TYPE": "U",
    "NORAD_CAT_ID": 64154,
    "ELEMENT_SET_NO": 999,
    "REV_AT_EPOCH": 2584,
    "BSTAR": 0.0012608,
    "MEAN_MOTION_DOT": 0.00049428,
    "MEAN_MOTION_DDOT": 0.0,
    "TLE_LINE1": "1 64154U 25112J   25315.17205947  .00049428  00000+0  12608-2 0  9997",
    "TLE_LINE2": "2 64154  97.6047  10.3625 0002252 100.5119 259.6380 15.39356579 25845",
    "COMMENT": "Grouped by shell and plane from TLE"
  },
  {
    "OBJECT_NAME": "STARLINK-34393",
    "OBJECT_ID": "25144A",
    "EPOCH": "2025-11-11T03:07:55.330464",
    "MEAN_MOTION": 15.30238725,
    "ECCENTRICITY": 0.0001184,
    "INCLINATION": 53.1593,
    "RA_OF_ASC_NODE": 11.4784,
    "ARG_OF_PERICENTER": 105.3805,
    "MEAN_ANOMALY": 254.7326,
    "EPHEMERIS_TYPE": 0,
    "CLASSIFICATION_TYPE": "U",
    "NORAD_CAT_ID": 64724,
    "ELEMENT_SET_NO": 999,
    "REV_AT_EPOCH": 2157,
    "BSTAR": 0.001901,
    "MEAN_MOTION_DOT": 0.0005644,
    "MEAN_MOTION_DDOT": 0.0,
    "TLE_LINE1": "1 64724U 25144A   25315.13050151  .00056440  00000+0  19010-2 0  9992",
    "TLE_LINE2": "2 64724  53.1593  11.4784 0001184 105.3805 254.7326 15.30238725 21572",
    "COMMENT": "Grouped by shell and plane from TLE"
  },
  {
    "OBJECT_NAME": "STARLINK-34562",
    "OBJECT_ID": "25144B",
    "EPOCH": "2025-11-11T07:15:17.734176",
    "MEAN_MOTION": 15.30182067,
    "ECCENTRICITY": 0.0001443,
    "INCLINATION": 53.1596,
    "RA_OF_ASC_NODE": 11.1259,
    "ARG_OF_PERICENTER": 21.9914,
    "MEAN_ANOMALY": 338.1149,
    "EPHEMERIS_TYPE": 0,
    "CLASSIFICATION_TYPE": "U",
    "NORAD_CAT_ID": 64725,
    "ELEMENT_SET_NO": 999,
    "REV_AT_EPOCH": 2156,
    "BSTAR": 0.0018271000000000001,
    "MEAN_MOTION_DOT": 0.0005412,
    "MEAN_MOTION_DDOT": 0.0,
    "TLE_LINE1": "1 64725U 25144B   25315.30228859  .00054120  00000+0  18271-2 0  9995",
    "TLE_LINE2": "2 64725  53.1596  11.1259 0001443  21.9914 338.1149 15.30182067 21568",
    "COMMENT": "Grouped by shell and plane from TLE"
  },
  {
    "OBJECT_NAME": "STARLINK-34557",
    "OBJECT_ID": "25144C",
    "EPOCH": "2025-11-11T03:36:47.730816",
    "MEAN_MOTION": 15.30235084,
    "ECCENTRICITY": 0.0001708,
    "INCLINATION": 53.1613,
    "RA_OF_ASC_NODE": 11.602,
    "ARG_OF_PERICENTER": 87.3441,
    "MEAN_ANOMALY": 272.7755,
    "EPHEMERIS_TYPE": 0,
    "CLASSIFICATION_TYPE": "U",
    "NORAD_CAT_ID": 64726,
    "ELEMENT_SET_NO": 999,
    "REV_AT_EPOCH": 2156,
    "BSTAR": 0.0011534,
    "MEAN_MOTION_DOT": 0.00033996,
    "MEAN_MOTION_DDOT": 0.0,
    "TLE_LINE1": "1 64726U 25144C   25315.15055244  .00033996  00000+0  11534-2 0  9998",
    "TLE_LINE2": "2 64726  53.1613  11.6020 0001708  87.3441 272.7755 15.30235084 21569",
    "COMMENT": "Grouped by shell and plane from TLE"
  },
  {
    "OBJECT_NAME": "STARLINK-34242",
    "OBJECT_ID": "25144D",
    "EPOCH": "2025-11-11T07:25:55.938144",
    "MEAN_MOTION": 15.30188221,
    "ECCENTRICITY": 0.0001698,
    "INCLINATION": 53.16,
    "RA_OF_ASC_NODE": 11.1707,
    "ARG_OF_PERICENTER": 14.2696,
    "MEAN_ANOMALY": 345.8352,
    "EPHEMERIS_TYPE": 0,
    "CLASSIFICATION_TYPE": "U",
    "NORAD_CAT_ID": 64727,
    "ELEMENT_SET_NO": 999,
    "REV_AT_EPOCH": 2158,
    "BSTAR": 0.0014698,
    "MEAN_MOTION_DOT": 0.0004341,
    "MEAN_MOTION_DDOT": 0.0,
    "TLE_LINE1": "1 64727U 25144D   25315.30967521  .00043410  00000+0  14698-2 0  9992",
    "TLE_LINE2": "2 64727  53.1600  11.1707 0001698  14.2696 345.8352 15.30188221 21589",
    "COMMENT": "Grouped by shell and plane from TLE"
  },
  {
    "OBJECT_NAME": "STARLINK-34239",
    "OBJECT_ID": "25144E",
    "EPOCH": "2025-11-11T00:18:05.601312",
    "MEAN_MOTION": 15.30225851,
    "ECCENTRICITY": 4.98e-05,
    "INCLINATION": 53.1618,
    "RA_OF_ASC_NODE": 12.1617,
    "ARG_OF_PERICENTER": 127.7844,
    "MEAN_ANOMALY": 232.3202,
    "EPHEMERIS_TYPE": 0,
    "CLASSIFICATION_TYPE": "U",
    "NORAD_CAT_ID": 64728,
    "ELEMENT_SET_NO": 999,
    "REV_AT_EPOCH": 2154,
    "BSTAR": 0.0024771000000000003,
    "MEAN_MOTION_DOT": 0.00073796,
    "MEAN_MOTION_DDOT": 0.0,
    "TLE_LINE1": "1 64728U 25144E   25315.01256483  .00073796  00000+0  24771-2 0  9992",
    "TLE_LINE2": "2 64728  53.1618  12.1617 0000498 127.7844 232.3202 15.30225851 21543",
    "COMMENT": "Grouped by shell and plane from TLE"
  },
  {
    "OBJECT_NAME": "STARLINK-34588",
    "OBJECT_ID": "25144F",
    "EPOCH": "2025-11-11T03:58:03.968544",
    "MEAN_MOTION": 15.30230183,
    "ECCENTRICITY": 0.0001225,
    "INCLINATION": 53.1609,
    "RA_OF_ASC_NODE": 11.6915,
    "ARG_OF_PERICENTER": 66.546,
    "MEAN_ANOMALY": 293.567,
    "EPHEMERIS_TYPE": 0,
    "CLASSIFICATION_TYPE": "U",
    "NORAD_CAT_ID": 64729,
    "ELEMENT_SET_NO": 999,
    "REV_AT_EPOCH": 2156,
    "BSTAR": 0.0010496,
    "MEAN_MOTION_DOT": 0.00030886,
    "MEAN_MOTION_DDOT": 0.0,
    "TLE_LINE1": "1 64729U 25144F   25315.16532371  .00030886  00000+0  10496-2 0  9994",
    "TLE_LINE2": "2 64729  53.1609  11.6915 0001225  66.5460 293.5670 15.30230183 21566",
    "COMMENT": "Grouped by shell and plane from TLE"
  },
  {
    "OBJECT_NAME": "STARLINK-34606",
    "OBJECT_ID": "25144G",
    "EPOCH": "2025-11-11T00:19:33.515040",
    "MEAN_MOTION": 15.30218912,
    "ECCENTRICITY": 0.0003123,
    "INCLINATION": 53.161,
    "RA_OF_ASC_NODE": 12.1685,
    "ARG_OF_PERICENTER": 81.9461,
    "MEAN_ANOMALY": 278.1894,
    "EPHEMERIS_TYPE": 0,
    "CLASSIFICATION_TYPE": "U",
    "NORAD_CAT_ID": 64730,
    "ELEMENT_SET_NO": 999,
    "REV_AT_EPOCH": 2154,
    "BSTAR": 0.0007527500000000001,
    "MEAN_MOTION_DOT": 0.00022015,
    "MEAN_MOTION_DDOT": 0.0,
    "TLE_LINE1": "1 64730U 25144G   25315.01358235  .00022015  00000+0  75275-3 0  9997",
    "TLE_LINE2": "2 64730  53.1610  12.1685 0003123  81.9461 278.1894 15.30218912 21542",
    "COMMENT": "Grouped by shell and plane from TLE"
  },
  {
    "OBJECT_NAME": "STARLINK-34552",
    "OBJECT_ID": "25144H",
    "EPOCH": "2025-11-11T03:15:31.396320",
    "MEAN_MOTION": 15.30231452,
    "ECCENTRICITY": 9e-05,
    "INCLINATION": 53.1588,
    "RA_OF_ASC_NODE": 11.5047,
    "ARG_OF_PERICENTER": 74.1765,
    "MEAN_ANOMALY": 285.9335,
    "EPHEMERIS_TYPE": 0,
    "CLASSIFICATION_TYPE": "U",
    "NORAD_CAT_ID": 64731,
    "ELEMENT_SET_NO": 999,
    "REV_AT_EPOCH": 2156,
    "BSTAR": 0.0011176,
    "MEAN_MOTION_DOT": 0.00032919,
    "MEAN_MOTION_DDOT": 0.0,
    "TLE_LINE1": "1 64731U 25144H   25315.13578005  .00032919  00000+0  11176-2 0  9993",
    "TLE_LINE2": "2 64731  53.1588  11.5047 0000900  74.1765 285.9335 15.30231452 21565",
    "COMMENT": "Grouped by shell and plane from TLE"
  },
  {
    "OBJECT_NAME": "STARLINK-34596",
    "OBJECT_ID": "25144J",
    "EPOCH": "2025-11-11T03:50:28.187808",
    "MEAN_MOTION": 15.30229174,
    "ECCENTRICITY": 5.14e-05,
    "INCLINATION": 53.1614,
    "RA_OF_ASC_NODE": 11.6574,
    "ARG_OF_PERICENTER": 48.8958,
    "MEAN_ANOMALY": 311.2087,
    "EPHEMERIS_TYPE": 0,
    "CLASSIFICATION_TYPE": "U",
    "NORAD_CAT_ID": 64732,
    "ELEMENT_SET_NO": 999,
    "REV_AT_EPOCH": 2156,
    "BSTAR": 0.0013149,
    "MEAN_MOTION_DOT": 0.00038823,
    "MEAN_MOTION_DDOT": 0.0,
    "TLE_LINE1": "1 64732U 25144J   25315.16004847  .00038823  00000+0  13149-2 0  9997",
    "TLE_LINE2": "2 64732  53.1614  11.6574 0000514  48.8958 311.2087 15.30229174 21560",
    "COMMENT": "Grouped by shell and plane from TLE"
  },
  {
    "OBJECT_NAME": "STARLINK-34591",
    "OBJECT_ID": "25144L",
    "EPOCH": "2025-11-11T03:21:35.780544",
    "MEAN_MOTION": 15.30244864,
    "ECCENTRICITY": 9.84e-05,
    "INCLINATION": 53.1597,
    "RA_OF_ASC_NODE": 11.5346,
    "ARG_OF_PERICENTER": 90.9979,
    "MEAN_ANOMALY": 269.1135,
    "EPHEMERIS_TYPE": 0,
    "CLASSIFICATION_TYPE": "U",
    "NORAD_CAT_ID": 64734,
    "ELEMENT_SET_NO": 999,
    "REV_AT_EPOCH": 2154,
    "BSTAR": 0.0015193000000000001,
    "MEAN_MOTION_DOT": 0.00044974,
    "MEAN_MOTION_DDOT": 0.0,
    "TLE_LINE1": "1 64734U 25144L   25315.13999746  .00044974  00000+0  15193-2 0  9992",
    "TLE_LINE2": "2 64734  53.1597  11.5346 0000984  90.9979 269.1135 15.30244864 21546",
    "COMMENT": "Grouped by shell and plane from TLE"
  },
  {
    "OBJECT_NAME": "STARLINK-34587",
    "OBJECT_ID": "25144M",
    "EPOCH": "2025-11-11T07:12:15.186528",
    "MEAN_MOTION": 15.30193208,
    "ECCENTRICITY": 0.000124,
    "INCLINATION": 53.161,
    "RA_OF_ASC_NODE": 11.1139,
    "ARG_OF_PERICENTER": 56.3143,
    "MEAN_ANOMALY": 303.7976,
    "EPHEMERIS_TYPE": 0,
    "CLASSIFICATION_TYPE": "U",
    "NORAD_CAT_ID": 64735,
    "ELEMENT_SET_NO": 999,
    "REV_AT_EPOCH": 2153,
    "BSTAR": 0.00043259,
    "MEAN_MOTION_DOT": 0.00012472,
    "MEAN_MOTION_DDOT": 0.0,
    "TLE_LINE1": "1 64735U 25144M   25315.30017577  .00012472  00000+0  43259-3 0  9998",
    "TLE_LINE2": "2 64735  53.1610  11.1139 0001240  56.3143 303.7976 15.30193208 21536",
    "COMMENT": "Grouped by shell and plane from TLE"
  }
]